{
  "type": "FeatureCollection",
  "features": [
    {
      "type": "Feature",
      "geometry": {
        "type": "Polygon",
        "coordinates": [
          [
            [
              73.85662432432433,
              18.520288513513513
            ],
            [
              73.85677567567568,
              18.520288513513513
            ],
            [
              73.85677567567568,
              18.520511486486484
            ],
            [
              73.85662432432433,
              18.520511486486484
            ],
            [
              73.85662432432433,
              18.520288513513513
            ]
          ]
        ]
      },
      "properties": {
        "building_id": "BLD-W42-1038",
        "parcel_khasra": "1038",
        "floors": 2,
        "use": "Residential",
        "year_built": 2016
      }
    },
    {
      "type": "Feature",
      "geometry": {
        "type": "Polygon",
        "coordinates": [
          [
            [
              73.85695585585586,
              18.520288513513513
            ],
            [
              73.85712882882882,
              18.520288513513513
            ],
            [
              73.85712882882882,
              18.520511486486484
            ],
            [
              73.85695585585586,
              18.520511486486484
            ],
            [
              73.85695585585586,
              18.520288513513513
            ]
          ]
        ]
      },
      "properties": {
        "building_id": "BLD-W42-1039",
        "parcel_khasra": "1039",
        "floors": 1,
        "use": "Residential",
        "year_built": 2017
      }
    },
    {
      "type": "Feature",
      "geometry": {
        "type": "Polygon",
        "coordinates": [
          [
            [
              73.85730360360361,
              18.520288513513513
            ],
            [
              73.85746576576577,
              18.520288513513513
            ],
            [
              73.85746576576577,
              18.520511486486484
            ],
            [
              73.85730360360361,
              18.520511486486484
            ],
            [
              73.85730360360361,
              18.520288513513513
            ]
          ]
        ]
      },
      "properties": {
        "building_id": "BLD-W42-1040",
        "parcel_khasra": "1040",
        "floors": 2,
        "use": "Residential",
        "year_built": 2022
      }
    },
    {
      "type": "Feature",
      "geometry": {
        "type": "Polygon",
        "coordinates": [
          [
            [
              73.85765945945946,
              18.520288513513513
            ],
            [
              73.8577945945946,
              18.520288513513513
            ],
            [
              73.8577945945946,
              18.520511486486484
            ],
            [
              73.85765945945946,
              18.520511486486484
            ],
            [
              73.85765945945946,
              18.520288513513513
            ]
          ]
        ]
      },
      "properties": {
        "building_id": "BLD-W42-1041",
        "parcel_khasra": "1041",
        "floors": 4,
        "use": "Residential",
        "year_built": 2007
      }
    },
    {
      "type": "Feature",
      "geometry": {
        "type": "Polygon",
        "coordinates": [
          [
            [
              73.85801081081081,
              18.520288513513513
            ],
            [
              73.85820000000001,
              18.520288513513513
            ],
            [
              73.85820000000001,
              18.520511486486484
            ],
            [
              73.85801081081081,
              18.520511486486484
            ],
            [
              73.85801081081081,
              18.520288513513513
            ]
          ]
        ]
      },
      "properties": {
        "building_id": "BLD-W42-1042",
        "parcel_khasra": "1042",
        "floors": 4,
        "use": "Residential",
        "year_built": 2018
      }
    },
    {
      "type": "Feature",
      "geometry": {
        "type": "Polygon",
        "coordinates": [
          [
            [
              73.85833603603604,
              18.520288513513513
            ],
            [
              73.85848738738738,
              18.520288513513513
            ],
            [
              73.85848738738738,
              18.520511486486484
            ],
            [
              73.85833603603604,
              18.520511486486484
            ],
            [
              73.85833603603604,
              18.520288513513513
            ]
          ]
        ]
      },
      "properties": {
        "building_id": "BLD-W42-1043",
        "parcel_khasra": "1043",
        "floors": 3,
        "use": "Residential",
        "year_built": 2000
      }
    },
    {
      "type": "Feature",
      "geometry": {
        "type": "Polygon",
        "coordinates": [
          [
            [
              73.85661891891893,
              18.520764414414412
            ],
            [
              73.85678108108108,
              18.520764414414412
            ],
            [
              73.85678108108108,
              18.520972522522523
            ],
            [
              73.85661891891893,
              18.520972522522523
            ],
            [
              73.85661891891893,
              18.520764414414412
            ]
          ]
        ]
      },
      "properties": {
        "building_id": "BLD-W42-1044",
        "parcel_khasra": "1044",
        "floors": 2,
        "use": "Residential",
        "year_built": 2022
      }
    },
    {
      "type": "Feature",
      "geometry": {
        "type": "Polygon",
        "coordinates": [
          [
            [
              73.85696126126126,
              18.520764414414412
            ],
            [
              73.85712342342342,
              18.520764414414412
            ],
            [
              73.85712342342342,
              18.520972522522523
            ],
            [
              73.85696126126126,
              18.520972522522523
            ],
            [
              73.85696126126126,
              18.520764414414412
            ]
          ]
        ]
      },
      "properties": {
        "building_id": "BLD-W42-1045",
        "parcel_khasra": "1045",
        "floors": 4,
        "use": "Residential",
        "year_built": 2010
      }
    },
    {
      "type": "Feature",
      "geometry": {
        "type": "Polygon",
        "coordinates": [
          [
            [
              73.85730360360361,
              18.520764414414412
            ],
            [
              73.85746576576577,
              18.520764414414412
            ],
            [
              73.85746576576577,
              18.520972522522523
            ],
            [
              73.85730360360361,
              18.520972522522523
            ],
            [
              73.85730360360361,
              18.520764414414412
            ]
          ]
        ]
      },
      "properties": {
        "building_id": "BLD-W42-1046",
        "parcel_khasra": "1046",
        "floors": 3,
        "use": "Residential",
        "year_built": 2004
      }
    },
    {
      "type": "Feature",
      "geometry": {
        "type": "Polygon",
        "coordinates": [
          [
            [
              73.85764594594595,
              18.520764414414412
            ],
            [
              73.8578081081081,
              18.520764414414412
            ],
            [
              73.8578081081081,
              18.520972522522523
            ],
            [
              73.85764594594595,
              18.520972522522523
            ],
            [
              73.85764594594595,
              18.520764414414412
            ]
          ]
        ]
      },
      "properties": {
        "building_id": "BLD-W42-1047",
        "parcel_khasra": "1047",
        "floors": 2,
        "use": "Residential",
        "year_built": 2010
      }
    }
  ]
}