{
  "type": "FeatureCollection",
  "features": [
    {
      "type": "Feature",
      "geometry": {
        "type": "Polygon",
        "coordinates": [
          [
            [
              73.85657387387388,
              18.520197297297297
            ],
            [
              73.85682612612612,
              18.520197297297297
            ],
            [
              73.85682612612612,
              18.5206027027027
            ],
            [
              73.85657387387388,
              18.5206027027027
            ],
            [
              73.85657387387388,
              18.520197297297297
            ]
          ]
        ]
      },
      "properties": {
        "Khasra_No": "1038",
        "Owner_Name": "Ramesh Kumar 0038",
        "Area": 1260,
        "Land_Use": "Residential",
        "Ward": "42",
        "Survey_Date": "2019-03-15",
        "Mutation_No": "MUT-01038",
        "parcel_reference": "1038"
      }
    },
    {
      "type": "Feature",
      "geometry": {
        "type": "Polygon",
        "coordinates": [
          [
            [
              73.8568981981982,
              18.520197297297297
            ],
            [
              73.85718648648648,
              18.520197297297297
            ],
            [
              73.85718648648648,
              18.5206027027027
            ],
            [
              73.8568981981982,
              18.5206027027027
            ],
            [
              73.8568981981982,
              18.520197297297297
            ]
          ]
        ]
      },
      "properties": {
        "Khasra_No": "1039",
        "Owner_Name": "Ramesh Kumar 0039",
        "Area": 1440,
        "Land_Use": "Residential",
        "Ward": "42",
        "Survey_Date": "2019-03-15",
        "Mutation_No": "MUT-01039",
        "parcel_reference": "1039"
      }
    },
    {
      "type": "Feature",
      "geometry": {
        "type": "Polygon",
        "coordinates": [
          [
            [
              73.85724954954955,
              18.520197297297297
            ],
            [
              73.85751981981983,
              18.520197297297297
            ],
            [
              73.85751981981983,
              18.5206027027027
            ],
            [
              73.85724954954955,
              18.5206027027027
            ],
            [
              73.85724954954955,
              18.520197297297297
            ]
          ]
        ]
      },
      "properties": {
        "Khasra_No": "1040",
        "Owner_Name": "Ramesh Kumar 0040",
        "Area": 1350,
        "Land_Use": "Residential",
        "Ward": "42",
        "Survey_Date": "2019-03-15",
        "Mutation_No": "MUT-01040",
        "parcel_reference": "1040"
      }
    },
    {
      "type": "Feature",
      "geometry": {
        "type": "Polygon",
        "coordinates": [
          [
            [
              73.85761441441441,
              18.520197297297297
            ],
            [
              73.85783963963964,
              18.520197297297297
            ],
            [
              73.85783963963964,
              18.5206027027027
            ],
            [
              73.85761441441441,
              18.5206027027027
            ],
            [
              73.85761441441441,
              18.520197297297297
            ]
          ]
        ]
      },
      "properties": {
        "Khasra_No": "1041",
        "Owner_Name": "Ramesh Kumar 0041",
        "Area": 1125,
        "Land_Use": "Commercial",
        "Ward": "42",
        "Survey_Date": "2019-03-15",
        "Mutation_No": "MUT-01041",
        "parcel_reference": "1041"
      }
    },
    {
      "type": "Feature",
      "geometry": {
        "type": "Polygon",
        "coordinates": [
          [
            [
              73.85791801801803,
              18.5202036036036
            ],
            [
              73.85823333333335,
              18.5202036036036
            ],
            [
              73.85823333333335,
              18.520609009009007
            ],
            [
              73.85791801801803,
              18.520609009009007
            ],
            [
              73.85791801801803,
              18.5202036036036
            ]
          ]
        ]
      },
      "properties": {
        "Khasra_No": "1042",
        "Owner_Name": "Ramesh Kumar 1042",
        "Area": 1575,
        "Land_Use": "Residential",
        "Ward": "42",
        "Survey_Date": "2019-03-15",
        "Mutation_No": "MUT-01042",
        "parcel_reference": "1042"
      }
    },
    {
      "type": "Feature",
      "geometry": {
        "type": "Polygon",
        "coordinates": [
          [
            [
              73.85828558558559,
              18.520197297297297
            ],
            [
              73.85853783783783,
              18.520197297297297
            ],
            [
              73.85853783783783,
              18.5206027027027
            ],
            [
              73.85828558558559,
              18.5206027027027
            ],
            [
              73.85828558558559,
              18.520197297297297
            ]
          ]
        ]
      },
      "properties": {
        "Khasra_No": "1043",
        "Owner_Name": "Ramesh Kumar 0043",
        "Area": 1260,
        "Land_Use": "Residential",
        "Ward": "42",
        "Survey_Date": "2019-03-15",
        "Mutation_No": "MUT-01043",
        "parcel_reference": "1043"
      }
    },
    {
      "type": "Feature",
      "geometry": {
        "type": "Polygon",
        "coordinates": [
          [
            [
              73.85656486486486,
              18.52067927927928
            ],
            [
              73.85683513513514,
              18.52067927927928
            ],
            [
              73.85683513513514,
              18.521057657657657
            ],
            [
              73.85656486486486,
              18.521057657657657
            ],
            [
              73.85656486486486,
              18.52067927927928
            ]
          ]
        ]
      },
      "properties": {
        "Khasra_No": "1044",
        "Owner_Name": "Ramesh Kumar 0044",
        "Area": 1260,
        "Land_Use": "Residential",
        "Ward": "42",
        "Survey_Date": "2019-03-15",
        "Mutation_No": "MUT-01044",
        "parcel_reference": "1044"
      }
    },
    {
      "type": "Feature",
      "geometry": {
        "type": "Polygon",
        "coordinates": [
          [
            [
              73.8569072072072,
              18.52067927927928
            ],
            [
              73.85717747747748,
              18.52067927927928
            ],
            [
              73.85717747747748,
              18.521057657657657
            ],
            [
              73.8569072072072,
              18.521057657657657
            ],
            [
              73.8569072072072,
              18.52067927927928
            ]
          ]
        ]
      },
      "properties": {
        "Khasra_No": "1045",
        "Owner_Name": "Ramesh Kumar 0045",
        "Area": 1260,
        "Land_Use": "Mixed-Use",
        "Ward": "42",
        "Survey_Date": "2019-03-15",
        "Mutation_No": "MUT-01045",
        "parcel_reference": "1045"
      }
    },
    {
      "type": "Feature",
      "geometry": {
        "type": "Polygon",
        "coordinates": [
          [
            [
              73.85724954954955,
              18.52067927927928
            ],
            [
              73.85751981981983,
              18.52067927927928
            ],
            [
              73.85751981981983,
              18.521057657657657
            ],
            [
              73.85724954954955,
              18.521057657657657
            ],
            [
              73.85724954954955,
              18.52067927927928
            ]
          ]
        ]
      },
      "properties": {
        "Khasra_No": "1046",
        "Owner_Name": "Ramesh Kumar 0046",
        "Area": 1260,
        "Land_Use": "Residential",
        "Ward": "42",
        "Survey_Date": "2019-03-15",
        "Mutation_No": "MUT-01046",
        "parcel_reference": "1046"
      }
    },
    {
      "type": "Feature",
      "geometry": {
        "type": "Polygon",
        "coordinates": [
          [
            [
              73.85759189189189,
              18.52067927927928
            ],
            [
              73.85786216216216,
              18.52067927927928
            ],
            [
              73.85786216216216,
              18.521057657657657
            ],
            [
              73.85759189189189,
              18.521057657657657
            ],
            [
              73.85759189189189,
              18.52067927927928
            ]
          ]
        ]
      },
      "properties": {
        "Khasra_No": "1047",
        "Owner_Name": "Ramesh Kumar 0047",
        "Area": 1260,
        "Land_Use": "Residential",
        "Ward": "42",
        "Survey_Date": "2019-03-15",
        "Mutation_No": "MUT-01047",
        "parcel_reference": "1047"
      }
    }
  ]
}