{
  "type": "FeatureCollection",
  "features": [
    {
      "type": "Feature",
      "geometry": {
        "type": "Polygon",
        "coordinates": [
          [
            [
              73.85656936936937,
              18.520197297297297
            ],
            [
              73.85683063063064,
              18.520197297297297
            ],
            [
              73.85683063063064,
              18.5206027027027
            ],
            [
              73.85656936936937,
              18.5206027027027
            ],
            [
              73.85656936936937,
              18.520197297297297
            ]
          ]
        ]
      },
      "properties": {
        "Parcel_ID": "1038",
        "Measured_Area": 1305,
        "Use": "Residential",
        "Acquisition_Date": "2024-02-14",
        "Accuracy_m": 0.15,
        "Flight_Height_m": 120,
        "parcel_reference": "1038"
      }
    },
    {
      "type": "Feature",
      "geometry": {
        "type": "Polygon",
        "coordinates": [
          [
            [
              73.85689369369369,
              18.520197297297297
            ],
            [
              73.85719099099099,
              18.520197297297297
            ],
            [
              73.85719099099099,
              18.5206027027027
            ],
            [
              73.85689369369369,
              18.5206027027027
            ],
            [
              73.85689369369369,
              18.520197297297297
            ]
          ]
        ]
      },
      "properties": {
        "Parcel_ID": "1039",
        "Measured_Area": 1485,
        "Use": "Residential",
        "Acquisition_Date": "2024-02-14",
        "Accuracy_m": 0.15,
        "Flight_Height_m": 120,
        "parcel_reference": "1039"
      }
    },
    {
      "type": "Feature",
      "geometry": {
        "type": "Polygon",
        "coordinates": [
          [
            [
              73.85725405405405,
              18.520197297297297
            ],
            [
              73.85751531531533,
              18.520197297297297
            ],
            [
              73.85751531531533,
              18.5206027027027
            ],
            [
              73.85725405405405,
              18.5206027027027
            ],
            [
              73.85725405405405,
              18.520197297297297
            ]
          ]
        ]
      },
      "properties": {
        "Parcel_ID": "1040",
        "Measured_Area": 1305,
        "Use": "Residential",
        "Acquisition_Date": "2024-02-14",
        "Accuracy_m": 0.15,
        "Flight_Height_m": 120,
        "parcel_reference": "1040"
      }
    },
    {
      "type": "Feature",
      "geometry": {
        "type": "Polygon",
        "coordinates": [
          [
            [
              73.85760990990991,
              18.520197297297297
            ],
            [
              73.85784414414414,
              18.520197297297297
            ],
            [
              73.85784414414414,
              18.5206027027027
            ],
            [
              73.85760990990991,
              18.5206027027027
            ],
            [
              73.85760990990991,
              18.520197297297297
            ]
          ]
        ]
      },
      "properties": {
        "Parcel_ID": "1041",
        "Measured_Area": 1170,
        "Use": "Commercial",
        "Acquisition_Date": "2024-02-14",
        "Accuracy_m": 0.15,
        "Flight_Height_m": 120,
        "parcel_reference": "1041"
      }
    },
    {
      "type": "Feature",
      "geometry": {
        "type": "Polygon",
        "coordinates": [
          [
            [
              73.85792252252253,
              18.520197297297297
            ],
            [
              73.85821981981982,
              18.520197297297297
            ],
            [
              73.85821981981982,
              18.5206027027027
            ],
            [
              73.85792252252253,
              18.5206027027027
            ],
            [
              73.85792252252253,
              18.520197297297297
            ]
          ]
        ]
      },
      "properties": {
        "Parcel_ID": "1042",
        "Measured_Area": 1485,
        "Use": "Residential",
        "Acquisition_Date": "2024-02-14",
        "Accuracy_m": 0.15,
        "Flight_Height_m": 120,
        "parcel_reference": "1042"
      }
    },
    {
      "type": "Feature",
      "geometry": {
        "type": "Polygon",
        "coordinates": [
          [
            [
              73.85828558558559,
              18.520197297297297
            ],
            [
              73.85853783783783,
              18.520197297297297
            ],
            [
              73.85853783783783,
              18.5206027027027
            ],
            [
              73.85828558558559,
              18.5206027027027
            ],
            [
              73.85828558558559,
              18.520197297297297
            ]
          ]
        ]
      },
      "properties": {
        "Parcel_ID": "1043",
        "Measured_Area": 1260,
        "Use": "Residential",
        "Acquisition_Date": "2024-02-14",
        "Accuracy_m": 0.15,
        "Flight_Height_m": 120,
        "parcel_reference": "1043"
      }
    },
    {
      "type": "Feature",
      "geometry": {
        "type": "Polygon",
        "coordinates": [
          [
            [
              73.85656936936937,
              18.52067927927928
            ],
            [
              73.85683063063064,
              18.52067927927928
            ],
            [
              73.85683063063064,
              18.521057657657657
            ],
            [
              73.85656936936937,
              18.521057657657657
            ],
            [
              73.85656936936937,
              18.52067927927928
            ]
          ]
        ]
      },
      "properties": {
        "Parcel_ID": "1044",
        "Measured_Area": 1218,
        "Use": "Residential",
        "Acquisition_Date": "2024-02-14",
        "Accuracy_m": 0.15,
        "Flight_Height_m": 120,
        "parcel_reference": "1044"
      }
    },
    {
      "type": "Feature",
      "geometry": {
        "type": "Polygon",
        "coordinates": [
          [
            [
              73.8569117117117,
              18.52067927927928
            ],
            [
              73.85717297297298,
              18.52067927927928
            ],
            [
              73.85717297297298,
              18.521057657657657
            ],
            [
              73.8569117117117,
              18.521057657657657
            ],
            [
              73.8569117117117,
              18.52067927927928
            ]
          ]
        ]
      },
      "properties": {
        "Parcel_ID": "1045",
        "Measured_Area": 1218,
        "Use": "Mixed-Use",
        "Acquisition_Date": "2024-02-14",
        "Accuracy_m": 0.15,
        "Flight_Height_m": 120,
        "parcel_reference": "1045"
      }
    },
    {
      "type": "Feature",
      "geometry": {
        "type": "Polygon",
        "coordinates": [
          [
            [
              73.85725405405405,
              18.52067927927928
            ],
            [
              73.85751531531533,
              18.52067927927928
            ],
            [
              73.85751531531533,
              18.521057657657657
            ],
            [
              73.85725405405405,
              18.521057657657657
            ],
            [
              73.85725405405405,
              18.52067927927928
            ]
          ]
        ]
      },
      "properties": {
        "Parcel_ID": "1046",
        "Measured_Area": 1218,
        "Use": "Residential",
        "Acquisition_Date": "2024-02-14",
        "Accuracy_m": 0.15,
        "Flight_Height_m": 120,
        "parcel_reference": "1046"
      }
    },
    {
      "type": "Feature",
      "geometry": {
        "type": "Polygon",
        "coordinates": [
          [
            [
              73.85759639639639,
              18.52067927927928
            ],
            [
              73.85785765765766,
              18.52067927927928
            ],
            [
              73.85785765765766,
              18.521057657657657
            ],
            [
              73.85759639639639,
              18.521057657657657
            ],
            [
              73.85759639639639,
              18.52067927927928
            ]
          ]
        ]
      },
      "properties": {
        "Parcel_ID": "1047",
        "Measured_Area": 1218,
        "Use": "Residential",
        "Acquisition_Date": "2024-02-14",
        "Accuracy_m": 0.15,
        "Flight_Height_m": 120,
        "parcel_reference": "1047"
      }
    }
  ]
}