{
  "type": "FeatureCollection",
  "features": [
    {
      "type": "Feature",
      "geometry": {
        "type": "Polygon",
        "coordinates": [
          [
            [
              73.85657387387388,
              18.520197297297297
            ],
            [
              73.85682612612612,
              18.520197297297297
            ],
            [
              73.85682612612612,
              18.5206027027027
            ],
            [
              73.85657387387388,
              18.5206027027027
            ],
            [
              73.85657387387388,
              18.520197297297297
            ]
          ]
        ]
      },
      "properties": {
        "Property_ID": "MUN-W42-1038",
        "Owner": "OWNER-0038",
        "Plot_Area": 1260,
        "Usage_Type": "Residential",
        "Zone": "42",
        "Survey_Date": "2022-11-10",
        "parcel_reference": "1038"
      }
    },
    {
      "type": "Feature",
      "geometry": {
        "type": "Polygon",
        "coordinates": [
          [
            [
              73.8568981981982,
              18.520197297297297
            ],
            [
              73.85718648648648,
              18.520197297297297
            ],
            [
              73.85718648648648,
              18.5206027027027
            ],
            [
              73.8568981981982,
              18.5206027027027
            ],
            [
              73.8568981981982,
              18.520197297297297
            ]
          ]
        ]
      },
      "properties": {
        "Property_ID": "MUN-W42-1039",
        "Owner": "OWNER-0039",
        "Plot_Area": 1440,
        "Usage_Type": "Residential",
        "Zone": "42",
        "Survey_Date": "2022-11-10",
        "parcel_reference": "1039"
      }
    },
    {
      "type": "Feature",
      "geometry": {
        "type": "Polygon",
        "coordinates": [
          [
            [
              73.85724954954955,
              18.520197297297297
            ],
            [
              73.85751981981983,
              18.520197297297297
            ],
            [
              73.85751981981983,
              18.5206027027027
            ],
            [
              73.85724954954955,
              18.5206027027027
            ],
            [
              73.85724954954955,
              18.520197297297297
            ]
          ]
        ]
      },
      "properties": {
        "Property_ID": "MUN-W42-1040",
        "Owner": "OWNER-0040",
        "Plot_Area": 1350,
        "Usage_Type": "Residential",
        "Zone": "42",
        "Survey_Date": "2022-11-10",
        "parcel_reference": "1040"
      }
    },
    {
      "type": "Feature",
      "geometry": {
        "type": "Polygon",
        "coordinates": [
          [
            [
              73.85761441441441,
              18.520197297297297
            ],
            [
              73.85783963963964,
              18.520197297297297
            ],
            [
              73.85783963963964,
              18.5206027027027
            ],
            [
              73.85761441441441,
              18.5206027027027
            ],
            [
              73.85761441441441,
              18.520197297297297
            ]
          ]
        ]
      },
      "properties": {
        "Property_ID": "MUN-W42-1041",
        "Owner": "OWNER-0041",
        "Plot_Area": 1125,
        "Usage_Type": "Commercial",
        "Zone": "42",
        "Survey_Date": "2022-11-10",
        "parcel_reference": "1041"
      }
    },
    {
      "type": "Feature",
      "geometry": {
        "type": "Polygon",
        "coordinates": [
          [
            [
              73.85795225225226,
              18.520197297297297
            ],
            [
              73.85818648648649,
              18.520197297297297
            ],
            [
              73.85818648648649,
              18.5206027027027
            ],
            [
              73.85795225225226,
              18.5206027027027
            ],
            [
              73.85795225225226,
              18.520197297297297
            ]
          ]
        ]
      },
      "properties": {
        "Property_ID": "MUN-W42-1042",
        "Owner": "OWNER-1042",
        "Plot_Area": 1170,
        "Usage_Type": "Residential",
        "Zone": "42",
        "Survey_Date": "2022-11-10",
        "parcel_reference": "1042"
      }
    },
    {
      "type": "Feature",
      "geometry": {
        "type": "Polygon",
        "coordinates": [
          [
            [
              73.85828558558559,
              18.520197297297297
            ],
            [
              73.85853783783783,
              18.520197297297297
            ],
            [
              73.85853783783783,
              18.5206027027027
            ],
            [
              73.85828558558559,
              18.5206027027027
            ],
            [
              73.85828558558559,
              18.520197297297297
            ]
          ]
        ]
      },
      "properties": {
        "Property_ID": "MUN-W42-1043",
        "Owner": "OWNER-0043",
        "Plot_Area": 1260,
        "Usage_Type": "Residential",
        "Zone": "42",
        "Survey_Date": "2022-11-10",
        "parcel_reference": "1043"
      }
    },
    {
      "type": "Feature",
      "geometry": {
        "type": "Polygon",
        "coordinates": [
          [
            [
              73.85656486486486,
              18.52067927927928
            ],
            [
              73.85683513513514,
              18.52067927927928
            ],
            [
              73.85683513513514,
              18.521057657657657
            ],
            [
              73.85656486486486,
              18.521057657657657
            ],
            [
              73.85656486486486,
              18.52067927927928
            ]
          ]
        ]
      },
      "properties": {
        "Property_ID": "MUN-W42-1044",
        "Owner": "OWNER-0044",
        "Plot_Area": 1260,
        "Usage_Type": "Residential",
        "Zone": "42",
        "Survey_Date": "2022-11-10",
        "parcel_reference": "1044"
      }
    },
    {
      "type": "Feature",
      "geometry": {
        "type": "Polygon",
        "coordinates": [
          [
            [
              73.8569072072072,
              18.52067927927928
            ],
            [
              73.85717747747748,
              18.52067927927928
            ],
            [
              73.85717747747748,
              18.521057657657657
            ],
            [
              73.8569072072072,
              18.521057657657657
            ],
            [
              73.8569072072072,
              18.52067927927928
            ]
          ]
        ]
      },
      "properties": {
        "Property_ID": "MUN-W42-1045",
        "Owner": "OWNER-0045",
        "Plot_Area": 1260,
        "Usage_Type": "Mixed-Use",
        "Zone": "42",
        "Survey_Date": "2022-11-10",
        "parcel_reference": "1045"
      }
    },
    {
      "type": "Feature",
      "geometry": {
        "type": "Polygon",
        "coordinates": [
          [
            [
              73.85724954954955,
              18.52067927927928
            ],
            [
              73.85751981981983,
              18.52067927927928
            ],
            [
              73.85751981981983,
              18.521057657657657
            ],
            [
              73.85724954954955,
              18.521057657657657
            ],
            [
              73.85724954954955,
              18.52067927927928
            ]
          ]
        ]
      },
      "properties": {
        "Property_ID": "MUN-W42-1046",
        "Owner": "OWNER-0046",
        "Plot_Area": 1260,
        "Usage_Type": "Residential",
        "Zone": "42",
        "Survey_Date": "2022-11-10",
        "parcel_reference": "1046"
      }
    },
    {
      "type": "Feature",
      "geometry": {
        "type": "Polygon",
        "coordinates": [
          [
            [
              73.85759189189189,
              18.52067927927928
            ],
            [
              73.85786216216216,
              18.52067927927928
            ],
            [
              73.85786216216216,
              18.521057657657657
            ],
            [
              73.85759189189189,
              18.521057657657657
            ],
            [
              73.85759189189189,
              18.52067927927928
            ]
          ]
        ]
      },
      "properties": {
        "Property_ID": "MUN-W42-1047",
        "Owner": "OWNER-0047",
        "Plot_Area": 1260,
        "Usage_Type": "Residential",
        "Zone": "42",
        "Survey_Date": "2022-11-10",
        "parcel_reference": "1047"
      }
    }
  ]
}