{
  "type": "FeatureCollection",
  "features": [
    {
      "type": "Feature",
      "geometry": {
        "type": "Polygon",
        "coordinates": [
          [
            [
              73.85657387387388,
              18.520174774774773
            ],
            [
              73.85682612612612,
              18.520174774774773
            ],
            [
              73.85682612612612,
              18.520625225225224
            ],
            [
              73.85657387387388,
              18.520625225225224
            ],
            [
              73.85657387387388,
              18.520174774774773
            ]
          ]
        ]
      },
      "properties": {
        "Khata_No": "K-1038",
        "Khatadar": "Shri Ramesh Kumar",
        "Area": 1265,
        "Land_Class": "Residential",
        "Ward_No": "42",
        "Date_of_Survey": "2021-08-20",
        "parcel_reference": "1038",
        "Devanagari_Name": "\u0930\u092e\u0947\u0936 \u0915\u0941\u092e\u093e\u0930"
      }
    },
    {
      "type": "Feature",
      "geometry": {
        "type": "Polygon",
        "coordinates": [
          [
            [
              73.8568981981982,
              18.520215315315316
            ],
            [
              73.85718648648648,
              18.520215315315316
            ],
            [
              73.85718648648648,
              18.52058468468468
            ],
            [
              73.8568981981982,
              18.52058468468468
            ],
            [
              73.8568981981982,
              18.520215315315316
            ]
          ]
        ]
      },
      "properties": {
        "Khata_No": "K-1039",
        "Khatadar": "Shri Priya Sharma",
        "Area": 1436,
        "Land_Class": "Residential",
        "Ward_No": "42",
        "Date_of_Survey": "2021-08-20",
        "parcel_reference": "1039",
        "Devanagari_Name": "\u092a\u094d\u0930\u093f\u092f\u093e \u0936\u0930\u094d\u092e\u093e"
      }
    },
    {
      "type": "Feature",
      "geometry": {
        "type": "Polygon",
        "coordinates": [
          [
            [
              73.85724954954955,
              18.52021981981982
            ],
            [
              73.85751981981983,
              18.52021981981982
            ],
            [
              73.85751981981983,
              18.52058018018018
            ],
            [
              73.85724954954955,
              18.52058018018018
            ],
            [
              73.85724954954955,
              18.52021981981982
            ]
          ]
        ]
      },
      "properties": {
        "Khata_No": "K-1040",
        "Khatadar": "Shri Mohammed Arif",
        "Area": 1345,
        "Land_Class": "Residential",
        "Ward_No": "42",
        "Date_of_Survey": "2021-08-20",
        "parcel_reference": "1040",
        "Devanagari_Name": "\u092e\u094b\u0939\u092e\u094d\u092e\u0926 \u0906\u0930\u093f\u092b"
      }
    },
    {
      "type": "Feature",
      "geometry": {
        "type": "Polygon",
        "coordinates": [
          [
            [
              73.85761441441441,
              18.5202018018018
            ],
            [
              73.85783963963964,
              18.5202018018018
            ],
            [
              73.85783963963964,
              18.520598198198197
            ],
            [
              73.85761441441441,
              18.520598198198197
            ],
            [
              73.85761441441441,
              18.5202018018018
            ]
          ]
        ]
      },
      "properties": {
        "Khata_No": "K-1041",
        "Khatadar": "Shri Sunita Patil",
        "Area": 1124,
        "Land_Class": "Residential",
        "Ward_No": "42",
        "Date_of_Survey": "2021-08-20",
        "parcel_reference": "1041",
        "Devanagari_Name": "\u0938\u0941\u0928\u0940\u0924\u093e \u092a\u093e\u091f\u0940\u0932"
      }
    },
    {
      "type": "Feature",
      "geometry": {
        "type": "Polygon",
        "coordinates": [
          [
            [
              73.85791171171172,
              18.520228828828827
            ],
            [
              73.85822702702703,
              18.520228828828827
            ],
            [
              73.85822702702703,
              18.52057117117117
            ],
            [
              73.85791171171172,
              18.52057117117117
            ],
            [
              73.85791171171172,
              18.520228828828827
            ]
          ]
        ]
      },
      "properties": {
        "Khata_No": "K-1042",
        "Khatadar": "Shri Vijay Deshmukh",
        "Area": 1568,
        "Land_Class": "Residential",
        "Ward_No": "42",
        "Date_of_Survey": "2021-08-20",
        "parcel_reference": "1042",
        "Devanagari_Name": "\u0935\u093f\u091c\u092f \u0926\u0947\u0936\u092e\u0941\u0916"
      }
    },
    {
      "type": "Feature",
      "geometry": {
        "type": "Polygon",
        "coordinates": [
          [
            [
              73.85828558558559,
              18.520206306306306
            ],
            [
              73.85853783783783,
              18.520206306306306
            ],
            [
              73.85853783783783,
              18.52059369369369
            ],
            [
              73.85828558558559,
              18.52059369369369
            ],
            [
              73.85828558558559,
              18.520206306306306
            ]
          ]
        ]
      },
      "properties": {
        "Khata_No": "K-1043",
        "Khatadar": "Shri Anita Joshi",
        "Area": 1258,
        "Land_Class": "Residential",
        "Ward_No": "42",
        "Date_of_Survey": "2021-08-20",
        "parcel_reference": "1043",
        "Devanagari_Name": "\u0905\u0928\u093f\u0924\u093e \u091c\u094b\u0936\u0940"
      }
    },
    {
      "type": "Feature",
      "geometry": {
        "type": "Polygon",
        "coordinates": [
          [
            [
              73.85656486486486,
              18.520688288288287
            ],
            [
              73.85683513513514,
              18.520688288288287
            ],
            [
              73.85683513513514,
              18.521048648648648
            ],
            [
              73.85656486486486,
              18.521048648648648
            ],
            [
              73.85656486486486,
              18.520688288288287
            ]
          ]
        ]
      },
      "properties": {
        "Khata_No": "K-1044",
        "Khatadar": "Shri Rajesh Mehta",
        "Area": 1258,
        "Land_Class": "Commercial",
        "Ward_No": "42",
        "Date_of_Survey": "2021-08-20",
        "parcel_reference": "1044",
        "Devanagari_Name": "\u0930\u093e\u091c\u0947\u0936 \u092e\u0947\u0939\u0924\u093e"
      }
    },
    {
      "type": "Feature",
      "geometry": {
        "type": "Polygon",
        "coordinates": [
          [
            [
              73.8569072072072,
              18.520692792792794
            ],
            [
              73.85717747747748,
              18.520692792792794
            ],
            [
              73.85717747747748,
              18.521044144144142
            ],
            [
              73.8569072072072,
              18.521044144144142
            ],
            [
              73.8569072072072,
              18.520692792792794
            ]
          ]
        ]
      },
      "properties": {
        "Khata_No": "K-1045",
        "Khatadar": "Shri Fatima Khan",
        "Area": 1257,
        "Land_Class": "Mixed-Use",
        "Ward_No": "42",
        "Date_of_Survey": "2021-08-20",
        "parcel_reference": "1045",
        "Devanagari_Name": "\u092b\u093e\u0924\u093f\u092e\u093e \u0916\u093e\u0928"
      }
    },
    {
      "type": "Feature",
      "geometry": {
        "type": "Polygon",
        "coordinates": [
          [
            [
              73.85724954954955,
              18.520697297297296
            ],
            [
              73.85751981981983,
              18.520697297297296
            ],
            [
              73.85751981981983,
              18.52103963963964
            ],
            [
              73.85724954954955,
              18.52103963963964
            ],
            [
              73.85724954954955,
              18.520697297297296
            ]
          ]
        ]
      },
      "properties": {
        "Khata_No": "K-1046",
        "Khatadar": "Shri Suresh Yadav",
        "Area": 1256,
        "Land_Class": "Residential",
        "Ward_No": "42",
        "Date_of_Survey": "2021-08-20",
        "parcel_reference": "1046",
        "Devanagari_Name": "\u0938\u0941\u0930\u0947\u0936 \u092f\u093e\u0926\u0935"
      }
    },
    {
      "type": "Feature",
      "geometry": {
        "type": "Polygon",
        "coordinates": [
          [
            [
              73.85759189189189,
              18.520656756756757
            ],
            [
              73.85786216216216,
              18.520656756756757
            ],
            [
              73.85786216216216,
              18.521080180180178
            ],
            [
              73.85759189189189,
              18.521080180180178
            ],
            [
              73.85759189189189,
              18.520656756756757
            ]
          ]
        ]
      },
      "properties": {
        "Khata_No": "K-1047",
        "Khatadar": "Shri Meena Iyer",
        "Area": 1265,
        "Land_Class": "Residential",
        "Ward_No": "42",
        "Date_of_Survey": "2021-08-20",
        "parcel_reference": "1047",
        "Devanagari_Name": "\u092e\u0940\u0928\u093e \u0905\u092f\u094d\u092f\u0930"
      }
    }
  ]
}