{
  "type": "FeatureCollection",
  "features": [
    {
      "type": "Feature",
      "geometry": {
        "type": "Polygon",
        "coordinates": [
          [
            [
              79.08801981981982,
              21.145552252252255
            ],
            [
              79.08838018018018,
              21.145552252252255
            ],
            [
              79.08838018018018,
              21.146047747747748
            ],
            [
              79.08801981981982,
              21.146047747747748
            ],
            [
              79.08801981981982,
              21.145552252252255
            ]
          ]
        ]
      },
      "properties": {
        "Khasra_No": "N-201",
        "Owner_Name": "Rajkumar Singh",
        "Area": 2200,
        "Land_Use": "Residential",
        "Ward": "7",
        "Survey_Date": "2018-05-20",
        "parcel_reference": "N-201"
      }
    },
    {
      "type": "Feature",
      "geometry": {
        "type": "Polygon",
        "coordinates": [
          [
            [
              79.08843423423423,
              21.145552252252255
            ],
            [
              79.08877657657658,
              21.145552252252255
            ],
            [
              79.08877657657658,
              21.146047747747748
            ],
            [
              79.08843423423423,
              21.146047747747748
            ],
            [
              79.08843423423423,
              21.145552252252255
            ]
          ]
        ]
      },
      "properties": {
        "Khasra_No": "N-202",
        "Owner_Name": "Lakshmi Reddy",
        "Area": 2090,
        "Land_Use": "Residential",
        "Ward": "7",
        "Survey_Date": "2018-05-20",
        "parcel_reference": "N-202"
      }
    },
    {
      "type": "Feature",
      "geometry": {
        "type": "Polygon",
        "coordinates": [
          [
            [
              79.08883153153153,
              21.145552252252255
            ],
            [
              79.08920990990991,
              21.145552252252255
            ],
            [
              79.08920990990991,
              21.146047747747748
            ],
            [
              79.08883153153153,
              21.146047747747748
            ],
            [
              79.08883153153153,
              21.145552252252255
            ]
          ]
        ]
      },
      "properties": {
        "Khasra_No": "N-203",
        "Owner_Name": "Ashok Gupta",
        "Area": 2310,
        "Land_Use": "Commercial",
        "Ward": "7",
        "Survey_Date": "2018-05-20",
        "parcel_reference": "N-203"
      }
    },
    {
      "type": "Feature",
      "geometry": {
        "type": "Polygon",
        "coordinates": [
          [
            [
              79.08925405405407,
              21.145552252252255
            ],
            [
              79.08957837837838,
              21.145552252252255
            ],
            [
              79.08957837837838,
              21.146047747747748
            ],
            [
              79.08925405405407,
              21.146047747747748
            ],
            [
              79.08925405405407,
              21.145552252252255
            ]
          ]
        ]
      },
      "properties": {
        "Khasra_No": "N-204",
        "Owner_Name": "Deepa Naidu",
        "Area": 1980,
        "Land_Use": "Residential",
        "Ward": "7",
        "Survey_Date": "2018-05-20",
        "parcel_reference": "N-204"
      }
    },
    {
      "type": "Feature",
      "geometry": {
        "type": "Polygon",
        "coordinates": [
          [
            [
              79.08801981981982,
              21.146106306306308
            ],
            [
              79.08838018018018,
              21.146106306306308
            ],
            [
              79.08838018018018,
              21.14653873873874
            ],
            [
              79.08801981981982,
              21.14653873873874
            ],
            [
              79.08801981981982,
              21.146106306306308
            ]
          ]
        ]
      },
      "properties": {
        "Khasra_No": "N-205",
        "Owner_Name": "Prakash Wankhede",
        "Area": 1920,
        "Land_Use": "Residential",
        "Ward": "7",
        "Survey_Date": "2018-05-20",
        "parcel_reference": "N-205"
      }
    },
    {
      "type": "Feature",
      "geometry": {
        "type": "Polygon",
        "coordinates": [
          [
            [
              79.08842522522522,
              21.146106306306308
            ],
            [
              79.08878558558558,
              21.146106306306308
            ],
            [
              79.08878558558558,
              21.14653873873874
            ],
            [
              79.08842522522522,
              21.14653873873874
            ],
            [
              79.08842522522522,
              21.146106306306308
            ]
          ]
        ]
      },
      "properties": {
        "Khasra_No": "N-206",
        "Owner_Name": "Shalini Bhosle",
        "Area": 1920,
        "Land_Use": "Mixed-Use",
        "Ward": "7",
        "Survey_Date": "2018-05-20",
        "parcel_reference": "N-206"
      }
    }
  ]
}