{
  "type": "FeatureCollection",
  "features": [
    {
      "type": "Feature",
      "geometry": {
        "type": "Polygon",
        "coordinates": [
          [
            [
              79.08801981981982,
              21.145552252252255
            ],
            [
              79.08838018018018,
              21.145552252252255
            ],
            [
              79.08838018018018,
              21.146047747747748
            ],
            [
              79.08801981981982,
              21.146047747747748
            ],
            [
              79.08801981981982,
              21.145552252252255
            ]
          ]
        ]
      },
      "properties": {
        "Parcel_ID": "N-201",
        "Measured_Area": 2200,
        "Use": "Residential",
        "Acquisition_Date": "2024-06-20",
        "Accuracy_m": 0.12,
        "parcel_reference": "N-201"
      }
    },
    {
      "type": "Feature",
      "geometry": {
        "type": "Polygon",
        "coordinates": [
          [
            [
              79.08843423423423,
              21.145552252252255
            ],
            [
              79.08877657657658,
              21.145552252252255
            ],
            [
              79.08877657657658,
              21.146047747747748
            ],
            [
              79.08843423423423,
              21.146047747747748
            ],
            [
              79.08843423423423,
              21.145552252252255
            ]
          ]
        ]
      },
      "properties": {
        "Parcel_ID": "N-202",
        "Measured_Area": 2090,
        "Use": "Residential",
        "Acquisition_Date": "2024-06-20",
        "Accuracy_m": 0.12,
        "parcel_reference": "N-202"
      }
    },
    {
      "type": "Feature",
      "geometry": {
        "type": "Polygon",
        "coordinates": [
          [
            [
              79.08884234234233,
              21.145552252252255
            ],
            [
              79.08918468468468,
              21.145552252252255
            ],
            [
              79.08918468468468,
              21.146047747747748
            ],
            [
              79.08884234234233,
              21.146047747747748
            ],
            [
              79.08884234234233,
              21.145552252252255
            ]
          ]
        ]
      },
      "properties": {
        "Parcel_ID": "N-203",
        "Measured_Area": 2090,
        "Use": "Commercial",
        "Acquisition_Date": "2024-06-20",
        "Accuracy_m": 0.12,
        "parcel_reference": "N-203"
      }
    },
    {
      "type": "Feature",
      "geometry": {
        "type": "Polygon",
        "coordinates": [
          [
            [
              79.08925405405407,
              21.145552252252255
            ],
            [
              79.08957837837838,
              21.145552252252255
            ],
            [
              79.08957837837838,
              21.146047747747748
            ],
            [
              79.08925405405407,
              21.146047747747748
            ],
            [
              79.08925405405407,
              21.145552252252255
            ]
          ]
        ]
      },
      "properties": {
        "Parcel_ID": "N-204",
        "Measured_Area": 1980,
        "Use": "Residential",
        "Acquisition_Date": "2024-06-20",
        "Accuracy_m": 0.12,
        "parcel_reference": "N-204"
      }
    },
    {
      "type": "Feature",
      "geometry": {
        "type": "Polygon",
        "coordinates": [
          [
            [
              79.08801981981982,
              21.146106306306308
            ],
            [
              79.08838018018018,
              21.146106306306308
            ],
            [
              79.08838018018018,
              21.14653873873874
            ],
            [
              79.08801981981982,
              21.14653873873874
            ],
            [
              79.08801981981982,
              21.146106306306308
            ]
          ]
        ]
      },
      "properties": {
        "Parcel_ID": "N-205",
        "Measured_Area": 1920,
        "Use": "Residential",
        "Acquisition_Date": "2024-06-20",
        "Accuracy_m": 0.12,
        "parcel_reference": "N-205"
      }
    },
    {
      "type": "Feature",
      "geometry": {
        "type": "Polygon",
        "coordinates": [
          [
            [
              79.08842522522522,
              21.146106306306308
            ],
            [
              79.08878558558558,
              21.146106306306308
            ],
            [
              79.08878558558558,
              21.14653873873874
            ],
            [
              79.08842522522522,
              21.14653873873874
            ],
            [
              79.08842522522522,
              21.146106306306308
            ]
          ]
        ]
      },
      "properties": {
        "Parcel_ID": "N-206",
        "Measured_Area": 1920,
        "Use": "Mixed-Use",
        "Acquisition_Date": "2024-06-20",
        "Accuracy_m": 0.12,
        "parcel_reference": "N-206"
      }
    }
  ]
}