{
  "type": "FeatureCollection",
  "features": [
    {
      "type": "Feature",
      "geometry": {
        "type": "Polygon",
        "coordinates": [
          [
            [
              79.08801981981982,
              21.145552252252255
            ],
            [
              79.08838018018018,
              21.145552252252255
            ],
            [
              79.08838018018018,
              21.146047747747748
            ],
            [
              79.08801981981982,
              21.146047747747748
            ],
            [
              79.08801981981982,
              21.145552252252255
            ]
          ]
        ]
      },
      "properties": {
        "Property_ID": "NMC-N-201",
        "Owner": "OWNER-N201",
        "Plot_Area": 2200,
        "Usage_Type": "Residential",
        "Zone": "7",
        "Survey_Date": "2023-03-10",
        "parcel_reference": "N-201"
      }
    },
    {
      "type": "Feature",
      "geometry": {
        "type": "Polygon",
        "coordinates": [
          [
            [
              79.08843423423423,
              21.145552252252255
            ],
            [
              79.08877657657658,
              21.145552252252255
            ],
            [
              79.08877657657658,
              21.146047747747748
            ],
            [
              79.08843423423423,
              21.146047747747748
            ],
            [
              79.08843423423423,
              21.145552252252255
            ]
          ]
        ]
      },
      "properties": {
        "Property_ID": "NMC-N-202",
        "Owner": "OWNER-N202",
        "Plot_Area": 2090,
        "Usage_Type": "Residential",
        "Zone": "7",
        "Survey_Date": "2023-03-10",
        "parcel_reference": "N-202"
      }
    },
    {
      "type": "Feature",
      "geometry": {
        "type": "Polygon",
        "coordinates": [
          [
            [
              79.08886666666666,
              21.145552252252255
            ],
            [
              79.08915495495495,
              21.145552252252255
            ],
            [
              79.08915495495495,
              21.146047747747748
            ],
            [
              79.08886666666666,
              21.146047747747748
            ],
            [
              79.08886666666666,
              21.145552252252255
            ]
          ]
        ]
      },
      "properties": {
        "Property_ID": "NMC-N-203",
        "Owner": "OWNER-N203",
        "Plot_Area": 1760,
        "Usage_Type": "Commercial",
        "Zone": "7",
        "Survey_Date": "2023-03-10",
        "parcel_reference": "N-203"
      }
    },
    {
      "type": "Feature",
      "geometry": {
        "type": "Polygon",
        "coordinates": [
          [
            [
              79.08925405405407,
              21.145552252252255
            ],
            [
              79.08957837837838,
              21.145552252252255
            ],
            [
              79.08957837837838,
              21.146047747747748
            ],
            [
              79.08925405405407,
              21.146047747747748
            ],
            [
              79.08925405405407,
              21.145552252252255
            ]
          ]
        ]
      },
      "properties": {
        "Property_ID": "NMC-N-204",
        "Owner": "OWNER-N204",
        "Plot_Area": 1980,
        "Usage_Type": "Residential",
        "Zone": "7",
        "Survey_Date": "2023-03-10",
        "parcel_reference": "N-204"
      }
    },
    {
      "type": "Feature",
      "geometry": {
        "type": "Polygon",
        "coordinates": [
          [
            [
              79.08801981981982,
              21.146106306306308
            ],
            [
              79.08838018018018,
              21.146106306306308
            ],
            [
              79.08838018018018,
              21.14653873873874
            ],
            [
              79.08801981981982,
              21.14653873873874
            ],
            [
              79.08801981981982,
              21.146106306306308
            ]
          ]
        ]
      },
      "properties": {
        "Property_ID": "NMC-N-205",
        "Owner": "OWNER-N205",
        "Plot_Area": 1920,
        "Usage_Type": "Residential",
        "Zone": "7",
        "Survey_Date": "2023-03-10",
        "parcel_reference": "N-205"
      }
    },
    {
      "type": "Feature",
      "geometry": {
        "type": "Polygon",
        "coordinates": [
          [
            [
              79.08842522522522,
              21.146106306306308
            ],
            [
              79.08878558558558,
              21.146106306306308
            ],
            [
              79.08878558558558,
              21.14653873873874
            ],
            [
              79.08842522522522,
              21.14653873873874
            ],
            [
              79.08842522522522,
              21.146106306306308
            ]
          ]
        ]
      },
      "properties": {
        "Property_ID": "NMC-N-206",
        "Owner": "OWNER-N206",
        "Plot_Area": 1920,
        "Usage_Type": "Mixed-Use",
        "Zone": "7",
        "Survey_Date": "2023-03-10",
        "parcel_reference": "N-206"
      }
    }
  ]
}