{
  "type": "FeatureCollection",
  "features": [
    {
      "type": "Feature",
      "geometry": {
        "type": "Polygon",
        "coordinates": [
          [
            [
              79.08801981981982,
              21.145552252252255
            ],
            [
              79.08838018018018,
              21.145552252252255
            ],
            [
              79.08838018018018,
              21.146047747747748
            ],
            [
              79.08801981981982,
              21.146047747747748
            ],
            [
              79.08801981981982,
              21.145552252252255
            ]
          ]
        ]
      },
      "properties": {
        "Khata_No": "K-N-201",
        "Khatadar": "Rajkumar Singh",
        "Area": 2196,
        "Land_Class": "Residential",
        "Ward_No": "7",
        "Date_of_Survey": "2020-09-15",
        "parcel_reference": "N-201"
      }
    },
    {
      "type": "Feature",
      "geometry": {
        "type": "Polygon",
        "coordinates": [
          [
            [
              79.08843423423423,
              21.145552252252255
            ],
            [
              79.08877657657658,
              21.145552252252255
            ],
            [
              79.08877657657658,
              21.146047747747748
            ],
            [
              79.08843423423423,
              21.146047747747748
            ],
            [
              79.08843423423423,
              21.145552252252255
            ]
          ]
        ]
      },
      "properties": {
        "Khata_No": "K-N-202",
        "Khatadar": "Lakshmi Reddy",
        "Area": 2086,
        "Land_Class": "Residential",
        "Ward_No": "7",
        "Date_of_Survey": "2020-09-15",
        "parcel_reference": "N-202"
      }
    },
    {
      "type": "Feature",
      "geometry": {
        "type": "Polygon",
        "coordinates": [
          [
            [
              79.08882162162162,
              21.145552252252255
            ],
            [
              79.08919999999999,
              21.145552252252255
            ],
            [
              79.08919999999999,
              21.146047747747748
            ],
            [
              79.08882162162162,
              21.146047747747748
            ],
            [
              79.08882162162162,
              21.145552252252255
            ]
          ]
        ]
      },
      "properties": {
        "Khata_No": "K-N-203",
        "Khatadar": "Ashok Gupta",
        "Area": 2301,
        "Land_Class": "Commercial",
        "Ward_No": "7",
        "Date_of_Survey": "2020-09-15",
        "parcel_reference": "N-203"
      }
    },
    {
      "type": "Feature",
      "geometry": {
        "type": "Polygon",
        "coordinates": [
          [
            [
              79.08925405405407,
              21.145552252252255
            ],
            [
              79.08957837837838,
              21.145552252252255
            ],
            [
              79.08957837837838,
              21.146047747747748
            ],
            [
              79.08925405405407,
              21.146047747747748
            ],
            [
              79.08925405405407,
              21.145552252252255
            ]
          ]
        ]
      },
      "properties": {
        "Khata_No": "K-N-204",
        "Khatadar": "Deepa Naidu",
        "Area": 1976,
        "Land_Class": "Residential",
        "Ward_No": "7",
        "Date_of_Survey": "2020-09-15",
        "parcel_reference": "N-204"
      }
    },
    {
      "type": "Feature",
      "geometry": {
        "type": "Polygon",
        "coordinates": [
          [
            [
              79.08801981981982,
              21.146106306306308
            ],
            [
              79.08838018018018,
              21.146106306306308
            ],
            [
              79.08838018018018,
              21.14653873873874
            ],
            [
              79.08801981981982,
              21.14653873873874
            ],
            [
              79.08801981981982,
              21.146106306306308
            ]
          ]
        ]
      },
      "properties": {
        "Khata_No": "K-N-205",
        "Khatadar": "Prakash Wankhede",
        "Area": 1912,
        "Land_Class": "Residential",
        "Ward_No": "7",
        "Date_of_Survey": "2020-09-15",
        "parcel_reference": "N-205"
      }
    },
    {
      "type": "Feature",
      "geometry": {
        "type": "Polygon",
        "coordinates": [
          [
            [
              79.08842522522522,
              21.146106306306308
            ],
            [
              79.08878558558558,
              21.146106306306308
            ],
            [
              79.08878558558558,
              21.14653873873874
            ],
            [
              79.08842522522522,
              21.14653873873874
            ],
            [
              79.08842522522522,
              21.146106306306308
            ]
          ]
        ]
      },
      "properties": {
        "Khata_No": "K-N-206",
        "Khatadar": "Shalini Bhosle",
        "Area": 1912,
        "Land_Class": "Mixed-Use",
        "Ward_No": "7",
        "Date_of_Survey": "2020-09-15",
        "parcel_reference": "N-206"
      }
    }
  ]
}