{
  "type": "FeatureCollection",
  "features": [
    {
      "type": "Feature",
      "geometry": {
        "type": "Polygon",
        "coordinates": [
          [
            [
              77.59439729729729,
              12.97132972972973
            ],
            [
              77.59480270270271,
              12.97132972972973
            ],
            [
              77.59480270270271,
              12.971870270270271
            ],
            [
              77.59439729729729,
              12.971870270270271
            ],
            [
              77.59439729729729,
              12.97132972972973
            ]
          ]
        ]
      },
      "properties": {
        "Survey_No": "B-301",
        "Owner_Name": "Venkatesh Rao",
        "Area": 2700,
        "Land_Use": "Residential",
        "Ward": "Layout3",
        "Survey_Date": "2016-11-12",
        "parcel_reference": "B-301"
      }
    },
    {
      "type": "Feature",
      "geometry": {
        "type": "Polygon",
        "coordinates": [
          [
            [
              77.59484774774774,
              12.97132972972973
            ],
            [
              77.59525315315315,
              12.97132972972973
            ],
            [
              77.59525315315315,
              12.971870270270271
            ],
            [
              77.59484774774774,
              12.971870270270271
            ],
            [
              77.59484774774774,
              12.97132972972973
            ]
          ]
        ]
      },
      "properties": {
        "Survey_No": "B-302",
        "Owner_Name": "Kavitha Nair",
        "Area": 2700,
        "Land_Use": "Residential",
        "Ward": "Layout3",
        "Survey_Date": "2016-11-12",
        "parcel_reference": "B-302"
      }
    },
    {
      "type": "Feature",
      "geometry": {
        "type": "Polygon",
        "coordinates": [
          [
            [
              77.59531711711712,
              12.97132972972973
            ],
            [
              77.59572252252252,
              12.97132972972973
            ],
            [
              77.59572252252252,
              12.971870270270271
            ],
            [
              77.59531711711712,
              12.971870270270271
            ],
            [
              77.59531711711712,
              12.97132972972973
            ]
          ]
        ]
      },
      "properties": {
        "Survey_No": "B-303",
        "Owner_Name": "Ibrahim Sheikh",
        "Area": 2700,
        "Land_Use": "Commercial",
        "Ward": "Layout3",
        "Survey_Date": "2016-11-12",
        "parcel_reference": "B-303"
      }
    },
    {
      "type": "Feature",
      "geometry": {
        "type": "Polygon",
        "coordinates": [
          [
            [
              77.59439729729729,
              12.971910810810812
            ],
            [
              77.59480270270271,
              12.971910810810812
            ],
            [
              77.59480270270271,
              12.972406306306308
            ],
            [
              77.59439729729729,
              12.972406306306308
            ],
            [
              77.59439729729729,
              12.971910810810812
            ]
          ]
        ]
      },
      "properties": {
        "Survey_No": "B-304",
        "Owner_Name": "Padma Swamy",
        "Area": 2475,
        "Land_Use": "Residential",
        "Ward": "Layout3",
        "Survey_Date": "2016-11-12",
        "parcel_reference": "B-304"
      }
    },
    {
      "type": "Feature",
      "geometry": {
        "type": "Polygon",
        "coordinates": [
          [
            [
              77.59484774774774,
              12.971910810810812
            ],
            [
              77.59525315315315,
              12.971910810810812
            ],
            [
              77.59525315315315,
              12.972406306306308
            ],
            [
              77.59484774774774,
              12.972406306306308
            ],
            [
              77.59484774774774,
              12.971910810810812
            ]
          ]
        ]
      },
      "properties": {
        "Survey_No": "B-305",
        "Owner_Name": "Geetha Pillai",
        "Area": 2475,
        "Land_Use": "Residential",
        "Ward": "Layout3",
        "Survey_Date": "2016-11-12",
        "parcel_reference": "B-305"
      }
    }
  ]
}