{
  "type": "FeatureCollection",
  "features": [
    {
      "type": "Feature",
      "geometry": {
        "type": "Polygon",
        "coordinates": [
          [
            [
              77.59439729729729,
              12.97132972972973
            ],
            [
              77.59480270270271,
              12.97132972972973
            ],
            [
              77.59480270270271,
              12.971870270270271
            ],
            [
              77.59439729729729,
              12.971870270270271
            ],
            [
              77.59439729729729,
              12.97132972972973
            ]
          ]
        ]
      },
      "properties": {
        "Parcel_ID": "B-301",
        "Area": 2700,
        "Use": "Residential",
        "Date": "2024-09-05",
        "GSD_cm": 8,
        "parcel_reference": "B-301"
      }
    },
    {
      "type": "Feature",
      "geometry": {
        "type": "Polygon",
        "coordinates": [
          [
            [
              77.59484774774774,
              12.97132972972973
            ],
            [
              77.59525315315315,
              12.97132972972973
            ],
            [
              77.59525315315315,
              12.971870270270271
            ],
            [
              77.59484774774774,
              12.971870270270271
            ],
            [
              77.59484774774774,
              12.97132972972973
            ]
          ]
        ]
      },
      "properties": {
        "Parcel_ID": "B-302",
        "Area": 2700,
        "Use": "Residential",
        "Date": "2024-09-05",
        "GSD_cm": 8,
        "parcel_reference": "B-302"
      }
    },
    {
      "type": "Feature",
      "geometry": {
        "type": "Polygon",
        "coordinates": [
          [
            [
              77.59530720720721,
              12.97132972972973
            ],
            [
              77.59569459459459,
              12.97132972972973
            ],
            [
              77.59569459459459,
              12.971870270270271
            ],
            [
              77.59530720720721,
              12.971870270270271
            ],
            [
              77.59530720720721,
              12.97132972972973
            ]
          ]
        ]
      },
      "properties": {
        "Parcel_ID": "B-303",
        "Area": 2580,
        "Use": "Commercial",
        "Date": "2024-09-05",
        "GSD_cm": 8,
        "parcel_reference": "B-303"
      }
    },
    {
      "type": "Feature",
      "geometry": {
        "type": "Polygon",
        "coordinates": [
          [
            [
              77.59439729729729,
              12.971910810810812
            ],
            [
              77.59480270270271,
              12.971910810810812
            ],
            [
              77.59480270270271,
              12.972406306306308
            ],
            [
              77.59439729729729,
              12.972406306306308
            ],
            [
              77.59439729729729,
              12.971910810810812
            ]
          ]
        ]
      },
      "properties": {
        "Parcel_ID": "B-304",
        "Area": 2475,
        "Use": "Residential",
        "Date": "2024-09-05",
        "GSD_cm": 8,
        "parcel_reference": "B-304"
      }
    },
    {
      "type": "Feature",
      "geometry": {
        "type": "Polygon",
        "coordinates": [
          [
            [
              77.59484774774774,
              12.971910810810812
            ],
            [
              77.59525315315315,
              12.971910810810812
            ],
            [
              77.59525315315315,
              12.972406306306308
            ],
            [
              77.59484774774774,
              12.972406306306308
            ],
            [
              77.59484774774774,
              12.971910810810812
            ]
          ]
        ]
      },
      "properties": {
        "Parcel_ID": "B-305",
        "Area": 2475,
        "Use": "Residential",
        "Date": "2024-09-05",
        "GSD_cm": 8,
        "parcel_reference": "B-305"
      }
    }
  ]
}