{
  "type": "FeatureCollection",
  "features": [
    {
      "type": "Feature",
      "geometry": {
        "type": "Polygon",
        "coordinates": [
          [
            [
              77.59439729729729,
              12.97132972972973
            ],
            [
              77.59480270270271,
              12.97132972972973
            ],
            [
              77.59480270270271,
              12.971870270270271
            ],
            [
              77.59439729729729,
              12.971870270270271
            ],
            [
              77.59439729729729,
              12.97132972972973
            ]
          ]
        ]
      },
      "properties": {
        "Khata_No": "BBMP-B-301",
        "Owner": "OWNER-B301",
        "Site_Area": 2700,
        "Usage": "Residential",
        "Ward": "Layout3",
        "Survey_Date": "2022-07-19",
        "parcel_reference": "B-301"
      }
    },
    {
      "type": "Feature",
      "geometry": {
        "type": "Polygon",
        "coordinates": [
          [
            [
              77.59484774774774,
              12.97132972972973
            ],
            [
              77.59525315315315,
              12.97132972972973
            ],
            [
              77.59525315315315,
              12.971870270270271
            ],
            [
              77.59484774774774,
              12.971870270270271
            ],
            [
              77.59484774774774,
              12.97132972972973
            ]
          ]
        ]
      },
      "properties": {
        "Khata_No": "BBMP-B-302",
        "Owner": "OWNER-B302",
        "Site_Area": 2700,
        "Usage": "Residential",
        "Ward": "Layout3",
        "Survey_Date": "2022-07-19",
        "parcel_reference": "B-302"
      }
    },
    {
      "type": "Feature",
      "geometry": {
        "type": "Polygon",
        "coordinates": [
          [
            [
              77.59532972972973,
              12.97132972972973
            ],
            [
              77.59567207207208,
              12.97132972972973
            ],
            [
              77.59567207207208,
              12.971870270270271
            ],
            [
              77.59532972972973,
              12.971870270270271
            ],
            [
              77.59532972972973,
              12.97132972972973
            ]
          ]
        ]
      },
      "properties": {
        "Khata_No": "BBMP-B-303",
        "Owner": "OWNER-B303",
        "Site_Area": 2280,
        "Usage": "Commercial",
        "Ward": "Layout3",
        "Survey_Date": "2022-07-19",
        "parcel_reference": "B-303"
      }
    },
    {
      "type": "Feature",
      "geometry": {
        "type": "Polygon",
        "coordinates": [
          [
            [
              77.59439729729729,
              12.971910810810812
            ],
            [
              77.59480270270271,
              12.971910810810812
            ],
            [
              77.59480270270271,
              12.972406306306308
            ],
            [
              77.59439729729729,
              12.972406306306308
            ],
            [
              77.59439729729729,
              12.971910810810812
            ]
          ]
        ]
      },
      "properties": {
        "Khata_No": "BBMP-B-304",
        "Owner": "OWNER-B304",
        "Site_Area": 2475,
        "Usage": "Residential",
        "Ward": "Layout3",
        "Survey_Date": "2022-07-19",
        "parcel_reference": "B-304"
      }
    },
    {
      "type": "Feature",
      "geometry": {
        "type": "Polygon",
        "coordinates": [
          [
            [
              77.59484774774774,
              12.971910810810812
            ],
            [
              77.59525315315315,
              12.971910810810812
            ],
            [
              77.59525315315315,
              12.972406306306308
            ],
            [
              77.59484774774774,
              12.972406306306308
            ],
            [
              77.59484774774774,
              12.971910810810812
            ]
          ]
        ]
      },
      "properties": {
        "Khata_No": "BBMP-B-305",
        "Owner": "OWNER-B305",
        "Site_Area": 2475,
        "Usage": "Residential",
        "Ward": "Layout3",
        "Survey_Date": "2022-07-19",
        "parcel_reference": "B-305"
      }
    }
  ]
}